STARLINK-3119
1 29145C 21082R   21325.19140683  .00005220  00000-0  43698-4 0  3257
2 29145  69.9978 295.5279 0003509 286.4376 144.5597 15.69758766    11
